start=new Date('2022-07-26T00:00:00.000Z').valueOf();
sats=[{"TLE_LINE1":"1 45695U 20035AQ  22206.72732161 -.00000353  00000-0 -48339-5 0  9995","ARG_OF_PERICENTER":"56.2367","OBJECT_NAME":"STARLINK-1420","TIME_SYSTEM":"UTC","MEAN_MOTION_DDOT":"0.0000000000000","FILE":"3521711","ELEMENT_SET_NO":"999","APOAPSIS":"548.283","CLASSIFICATION_TYPE":"U","EPHEMERIS_TYPE":"0","SEMIMAJOR_AXIS":"6925.359","DECAY_DATE":null,"MEAN_ANOMALY":"303.8768","MEAN_MOTION_DOT":"-0.00000353","RA_OF_ASC_NODE":"215.6111","MEAN_ELEMENT_THEORY":"SGP4","OBJECT_TYPE":"PAYLOAD","TLE_LINE2":"2 45695  53.0543 215.6111 0001530  56.2367 303.8768 15.06396677119754","BSTAR":"-0.00000483390000","SITE":"AFETR","LAUNCH_DATE":"2020-06-04","CENTER_NAME":"EARTH","PERIOD":"95.592","COUNTRY_CODE":"US","EPOCH":"2022-07-25T17:27:20.587104","OBJECT_ID":"2020-035AQ","MEAN_MOTION":"15.06396677","REV_AT_EPOCH":"11975","GP_ID":"208860772","NORAD_CAT_ID":"45695","REF_FRAME":"TEME","ECCENTRICITY":"0.00015300","RCS_SIZE":"LARGE","INCLINATION":"53.0543","PERIAPSIS":"546.164"},{"BSTAR":"0.00021428000000","SITE":"AFETR","CENTER_NAME":"EARTH","LAUNCH_DATE":"2020-06-04","PERIOD":"95.592","COUNTRY_CODE":"US","OBJECT_ID":"2020-035AR","MEAN_MOTION":"15.06408198","REV_AT_EPOCH":"11947","EPOCH":"2022-07-25T19:17:32.001504","GP_ID":"208859520","RCS_SIZE":"LARGE","ECCENTRICITY":"0.00016090","NORAD_CAT_ID":"45696","REF_FRAME":"TEME","PERIAPSIS":"546.074","INCLINATION":"53.0525","TLE_LINE1":"1 45696U 20035AR  22206.80384261  .00002912  00000-0  21428-3 0  9998","TIME_SYSTEM":"UTC","ARG_OF_PERICENTER":"68.3002","OBJECT_NAME":"STARLINK-1422","MEAN_MOTION_DDOT":"0.0000000000000","ELEMENT_SET_NO":"999","APOAPSIS":"548.303","CLASSIFICATION_TYPE":"U","FILE":"3521711","EPHEMERIS_TYPE":"0","SEMIMAJOR_AXIS":"6925.323","DECAY_DATE":null,"MEAN_ANOMALY":"291.8158","OBJECT_TYPE":"PAYLOAD","TLE_LINE2":"2 45696  53.0525 235.2762 0001609  68.3002 291.8158 15.06408198119472","MEAN_MOTION_DOT":"0.00002912","MEAN_ELEMENT_THEORY":"SGP4","RA_OF_ASC_NODE":"235.2762"},{"TIME_SYSTEM":"UTC","ARG_OF_PERICENTER":"74.0268","OBJECT_NAME":"STARLINK-1351","TLE_LINE1":"1 45697U 20035AS  22206.44813797  .00001686  00000-0  13204-3 0  9990","MEAN_MOTION_DDOT":"0.0000000000000","DECAY_DATE":null,"EPHEMERIS_TYPE":"0","SEMIMAJOR_AXIS":"6925.331","APOAPSIS":"548.179","ELEMENT_SET_NO":"999","CLASSIFICATION_TYPE":"U","FILE":"3521435","OBJECT_TYPE":"PAYLOAD","TLE_LINE2":"2 45697  53.0545 216.8937 0001420  74.0268 286.0877 15.06405837119711","RA_OF_ASC_NODE":"216.8937","MEAN_ELEMENT_THEORY":"SGP4","MEAN_MOTION_DOT":"0.00001686","MEAN_ANOMALY":"286.0877","CENTER_NAME":"EARTH","LAUNCH_DATE":"2020-06-04","SITE":"AFETR","BSTAR":"0.00013204000000","COUNTRY_CODE":"US","PERIOD":"95.592","GP_ID":"208828672","REV_AT_EPOCH":"11971","MEAN_MOTION":"15.06405837","OBJECT_ID":"2020-035AS","EPOCH":"2022-07-25T10:45:19.120608","INCLINATION":"53.0545","PERIAPSIS":"546.212","RCS_SIZE":"LARGE","ECCENTRICITY":"0.00014200","REF_FRAME":"TEME","NORAD_CAT_ID":"45697"},{"MEAN_ANOMALY":"303.2959","TLE_LINE2":"2 45698  53.0539 216.9278 0001283  56.8153 303.2959 15.06406897119712","OBJECT_TYPE":"PAYLOAD","MEAN_ELEMENT_THEORY":"SGP4","RA_OF_ASC_NODE":"216.9278","MEAN_MOTION_DOT":"0.00001728","ELEMENT_SET_NO":"999","APOAPSIS":"548.081","CLASSIFICATION_TYPE":"U","FILE":"3521435","DECAY_DATE":null,"EPHEMERIS_TYPE":"0","SEMIMAJOR_AXIS":"6925.327","MEAN_MOTION_DDOT":"0.0000000000000","TLE_LINE1":"1 45698U 20035AT  22206.43613773  .00001728  00000-0  13484-3 0  9999","TIME_SYSTEM":"UTC","ARG_OF_PERICENTER":"56.8153","OBJECT_NAME":"STARLINK-1370","ECCENTRICITY":"0.00012830","RCS_SIZE":"LARGE","REF_FRAME":"TEME","NORAD_CAT_ID":"45698","INCLINATION":"53.0539","PERIAPSIS":"546.304","MEAN_MOTION":"15.06406897","REV_AT_EPOCH":"11971","OBJECT_ID":"2020-035AT","EPOCH":"2022-07-25T10:28:02.299872","GP_ID":"208828924","PERIOD":"95.592","COUNTRY_CODE":"US","SITE":"AFETR","BSTAR":"0.00013484000000","CENTER_NAME":"EARTH","LAUNCH_DATE":"2020-06-04"},{"GP_ID":"208829664","EPOCH":"2022-07-25T10:13:28.219584","OBJECT_ID":"2020-035AU","MEAN_MOTION":"15.06408084","REV_AT_EPOCH":"11970","INCLINATION":"53.0531","PERIAPSIS":"546.240","NORAD_CAT_ID":"45699","REF_FRAME":"TEME","ECCENTRICITY":"0.00013700","RCS_SIZE":"LARGE","LAUNCH_DATE":"2020-06-04","CENTER_NAME":"EARTH","BSTAR":"0.00014808000000","SITE":"AFETR","COUNTRY_CODE":"US","PERIOD":"95.592","SEMIMAJOR_AXIS":"6925.324","EPHEMERIS_TYPE":"0","DECAY_DATE":null,"FILE":"3521435","APOAPSIS":"548.138","ELEMENT_SET_NO":"999","CLASSIFICATION_TYPE":"U","MEAN_MOTION_DOT":"0.00001925","MEAN_ELEMENT_THEORY":"SGP4","RA_OF_ASC_NODE":"216.9925","OBJECT_TYPE":"PAYLOAD","TLE_LINE2":"2 45699  53.0531 216.9925 0001370  86.5871 273.5275 15.06408084119707","MEAN_ANOMALY":"273.5275","ARG_OF_PERICENTER":"86.5871","OBJECT_NAME":"STARLINK-1398","TIME_SYSTEM":"UTC","TLE_LINE1":"1 45699U 20035AU  22206.42602106  .00001925  00000-0  14808-3 0  9997","MEAN_MOTION_DDOT":"0.0000000000000"},{"OBJECT_TYPE":"PAYLOAD","TLE_LINE2":"2 45700  53.0533 215.4959 0001226  84.2142 275.8987 15.06420263119752","MEAN_MOTION_DOT":"-0.00006550","MEAN_ELEMENT_THEORY":"SGP4","RA_OF_ASC_NODE":"215.4959","MEAN_ANOMALY":"275.8987","SEMIMAJOR_AXIS":"6925.286","EPHEMERIS_TYPE":"0","DECAY_DATE":null,"APOAPSIS":"548.000","CLASSIFICATION_TYPE":"U","ELEMENT_SET_NO":"999","FILE":"3521711","MEAN_MOTION_DDOT":"0.0000000000000","TIME_SYSTEM":"UTC","OBJECT_NAME":"STARLINK-1400","ARG_OF_PERICENTER":"84.2142","TLE_LINE1":"1 45700U 20035AV  22206.75406046 -.00006550  00000-0 -42101-3 0  9999","PERIAPSIS":"546.302","INCLINATION":"53.0533","RCS_SIZE":"LARGE","ECCENTRICITY":"0.00012260","NORAD_CAT_ID":"45700","REF_FRAME":"TEME","GP_ID":"208859022","OBJECT_ID":"2020-035AV","MEAN_MOTION":"15.06420263","REV_AT_EPOCH":"11975","EPOCH":"2022-07-25T18:05:50.823744","COUNTRY_CODE":"US","PERIOD":"95.591","CENTER_NAME":"EARTH","LAUNCH_DATE":"2020-06-04","BSTAR":"-0.00042101000000","SITE":"AFETR"},{"PERIAPSIS":"546.012","INCLINATION":"53.0551","REF_FRAME":"TEME","NORAD_CAT_ID":"45701","RCS_SIZE":"LARGE","ECCENTRICITY":"0.00017580","GP_ID":"208859271","EPOCH":"2022-07-25T20:23:52.192896","MEAN_MOTION":"15.06394904","REV_AT_EPOCH":"11976","OBJECT_ID":"2020-035AW","COUNTRY_CODE":"US","PERIOD":"95.592","LAUNCH_DATE":"2020-06-04","CENTER_NAME":"EARTH","BSTAR":"-0.00000757040000","SITE":"AFETR","RA_OF_ASC_NODE":"215.0818","MEAN_ELEMENT_THEORY":"SGP4","MEAN_MOTION_DOT":"-0.00000394","TLE_LINE2":"2 45701  53.0551 215.0818 0001758  58.4636 301.6524 15.06394904119762","OBJECT_TYPE":"PAYLOAD","MEAN_ANOMALY":"301.6524","DECAY_DATE":null,"SEMIMAJOR_AXIS":"6925.364","EPHEMERIS_TYPE":"0","FILE":"3521711","APOAPSIS":"548.447","ELEMENT_SET_NO":"999","CLASSIFICATION_TYPE":"U","MEAN_MOTION_DDOT":"0.0000000000000","OBJECT_NAME":"STARLINK-1403","ARG_OF_PERICENTER":"58.4636","TIME_SYSTEM":"UTC","TLE_LINE1":"1 45701U 20035AW  22206.84990964 -.00000394  00000-0 -75704-5 0  9994"},{"RA_OF_ASC_NODE":"215.1570","MEAN_ELEMENT_THEORY":"SGP4","MEAN_MOTION_DOT":"-0.00000612","OBJECT_TYPE":"PAYLOAD","TLE_LINE2":"2 45702  53.0541 215.1570 0001530  64.0718 296.0428 15.06393574119762","MEAN_ANOMALY":"296.0428","DECAY_DATE":null,"SEMIMAJOR_AXIS":"6925.368","EPHEMERIS_TYPE":"0","FILE":"3521711","CLASSIFICATION_TYPE":"U","APOAPSIS":"548.293","ELEMENT_SET_NO":"999","MEAN_MOTION_DDOT":"0.0000000000000","ARG_OF_PERICENTER":"64.0718","OBJECT_NAME":"STARLINK-1405","TIME_SYSTEM":"UTC","TLE_LINE1":"1 45702U 20035AX  22206.83147958 -.00000612  00000-0 -22163-4 0  9994","INCLINATION":"53.0541","PERIAPSIS":"546.174","REF_FRAME":"TEME","NORAD_CAT_ID":"45702","RCS_SIZE":"LARGE","ECCENTRICITY":"0.00015300","GP_ID":"208860023","EPOCH":"2022-07-25T19:57:19.835712","MEAN_MOTION":"15.06393574","REV_AT_EPOCH":"11976","OBJECT_ID":"2020-035AX","COUNTRY_CODE":"US","PERIOD":"95.593","LAUNCH_DATE":"2020-06-04","CENTER_NAME":"EARTH","SITE":"AFETR","BSTAR":"-0.00002216300000"},{"OBJECT_ID":"2020-035AY","REV_AT_EPOCH":"11971","MEAN_MOTION":"15.06398357","EPOCH":"2022-07-25T11:54:19.356768","GP_ID":"208829165","ECCENTRICITY":"0.00014330","RCS_SIZE":"LARGE","NORAD_CAT_ID":"45703","REF_FRAME":"TEME","PERIAPSIS":"546.226","INCLINATION":"53.0544","SITE":"AFETR","BSTAR":"0.00002309100000","CENTER_NAME":"EARTH","LAUNCH_DATE":"2020-06-04","PERIOD":"95.592","COUNTRY_CODE":"US","APOAPSIS":"548.211","ELEMENT_SET_NO":"999","CLASSIFICATION_TYPE":"U","FILE":"3521435","SEMIMAJOR_AXIS":"6925.354","EPHEMERIS_TYPE":"0","DECAY_DATE":null,"MEAN_ANOMALY":"283.3916","TLE_LINE2":"2 45703  53.0544 216.6786 0001433  76.7232 283.3916 15.06398357119714","OBJECT_TYPE":"PAYLOAD","MEAN_MOTION_DOT":"0.00000062","RA_OF_ASC_NODE":"216.6786","MEAN_ELEMENT_THEORY":"SGP4","TLE_LINE1":"1 45703U 20035AY  22206.49605737  .00000062  00000-0  23091-4 0  9999","TIME_SYSTEM":"UTC","ARG_OF_PERICENTER":"76.7232","OBJECT_NAME":"STARLINK-1407","MEAN_MOTION_DDOT":"0.0000000000000"},{"INCLINATION":"53.0543","PERIAPSIS":"546.234","RCS_SIZE":"LARGE","ECCENTRICITY":"0.00013990","NORAD_CAT_ID":"45704","REF_FRAME":"TEME","GP_ID":"208859521","OBJECT_ID":"2020-035AZ","MEAN_MOTION":"15.06403489","REV_AT_EPOCH":"11931","EPOCH":"2022-07-25T14:06:57.863808","COUNTRY_CODE":"US","PERIOD":"95.592","CENTER_NAME":"EARTH","LAUNCH_DATE":"2020-06-04","BSTAR":"0.00008075000000","SITE":"AFETR","TLE_LINE2":"2 45704  53.0543 246.2653 0001399  79.8695 280.2451 15.06403489119313","OBJECT_TYPE":"PAYLOAD","MEAN_MOTION_DOT":"0.00000922","RA_OF_ASC_NODE":"246.2653","MEAN_ELEMENT_THEORY":"SGP4","MEAN_ANOMALY":"280.2451","EPHEMERIS_TYPE":"0","SEMIMAJOR_AXIS":"6925.338","DECAY_DATE":null,"APOAPSIS":"548.172","ELEMENT_SET_NO":"999","CLASSIFICATION_TYPE":"U","FILE":"3521711","MEAN_MOTION_DDOT":"0.0000000000000","TIME_SYSTEM":"UTC","ARG_OF_PERICENTER":"79.8695","OBJECT_NAME":"STARLINK-1409","TLE_LINE1":"1 45704U 20035AZ  22206.58816972  .00000922  00000-0  80750-4 0  9995"}];
